{
    "links": {
        "self": "http://www.neowsapp.com/rest/v1/neo/3445631?api_key=iIulBulltgU6a56xZRHN4H3l9WmuAYTsLGpBGhQ2"
    },
    "id": "3445631",
    "neo_reference_id": "3445631",
    "name": "(2009 CC2)",
    "designation": "2009 CC2",
    "nasa_jpl_url": "http://ssd.jpl.nasa.gov/sbdb.cgi?sstr=3445631",
    "absolute_magnitude_h": 27.8,
    "estimated_diameter": {
        "kilometers": {
            "estimated_diameter_min": 0.0073207399,
            "estimated_diameter_max": 0.016369672
        },
        "meters": {
            "estimated_diameter_min": 7.3207398935,
            "estimated_diameter_max": 16.3696720474
        },
        "miles": {
            "estimated_diameter_min": 0.0045488955,
            "estimated_diameter_max": 0.0101716395
        },
        "feet": {
            "estimated_diameter_min": 24.0181762721,
            "estimated_diameter_max": 53.70627484
        }
    },
    "is_potentially_hazardous_asteroid": false,
    "close_approach_data": [
        {
            "close_approach_date": "2008-11-25",
            "close_approach_date_full": "2008-Nov-25 13:26",
            "epoch_date_close_approach": 1227619560000,
            "relative_velocity": {
                "kilometers_per_second": "19.2262735046",
                "kilometers_per_hour": "69214.5846164358",
                "miles_per_hour": "43007.2512023626"
            },
            "miss_distance": {
                "astronomical": "0.0440386841",
                "lunar": "17.1310481149",
                "kilometers": "6588093.338962867",
                "miles": "4093651.3756948846"
            },
            "orbiting_body": "Venus"
        },
        {
            "close_approach_date": "2009-02-02",
            "close_approach_date_full": "2009-Feb-02 16:50",
            "epoch_date_close_approach": 1233593400000,
            "relative_velocity": {
                "kilometers_per_second": "18.9699208313",
                "kilometers_per_hour": "68291.7149926883",
                "miles_per_hour": "42433.8159075401"
            },
            "miss_distance": {
                "astronomical": "0.0029698505",
                "lunar": "1.1552718445",
                "kilometers": "444283.309018435",
                "miles": "276064.846927003"
            },
            "orbiting_body": "Moon"
        },
        {
            "close_approach_date": "2009-02-02",
            "close_approach_date_full": "2009-Feb-02 17:14",
            "epoch_date_close_approach": 1233594840000,
            "relative_velocity": {
                "kilometers_per_second": "20.0067592086",
                "kilometers_per_hour": "72024.3331509438",
                "miles_per_hour": "44753.1196737073"
            },
            "miss_distance": {
                "astronomical": "0.0012286958",
                "lunar": "0.4779626662",
                "kilometers": "183810.274557946",
                "miles": "114214.4084178148"
            },
            "orbiting_body": "Earth"
        }
    ],
    "orbital_data": {
        "orbit_id": "6",
        "orbit_determination_date": "2017-04-06 09:01:23",
        "first_observation_date": "2009-02-04",
        "last_observation_date": "2009-02-04",
        "data_arc_in_days": null,
        "observations_used": 16,
        "orbit_uncertainty": "9",
        "minimum_orbit_intersection": ".00119299",
        "jupiter_tisserand_invariant": "3.577",
        "epoch_osculation": "2454866.5",
        "eccentricity": ".6851469732718191",
        "semi_major_axis": "1.934676304751654",
        "inclination": "2.715481548016605",
        "ascending_node_longitude": "132.4547816737241",
        "orbital_period": "982.9035322060819",
        "perihelion_distance": ".6091386902903508",
        "perihelion_argument": "274.9233667417445",
        "aphelion_distance": "3.260213919212957",
        "perihelion_time": "2454819.166530822034",
        "mean_anomaly": "17.33644080596816",
        "mean_motion": ".3662617827733272",
        "equinox": "J2000",
        "orbit_class": {
            "orbit_class_type": "APO",
            "orbit_class_description": "Near-Earth asteroid orbits which cross the Earth’s orbit similar to that of 1862 Apollo",
            "orbit_class_range": "a (semi-major axis) > 1.0 AU; q (perihelion) < 1.017 AU"
        }
    },
    "is_sentry_object": false
}